OBJECT_NAME,OBJECT_ID,EPOCH,MEAN_MOTION,ECCENTRICITY,INCLINATION,RA_OF_ASC_NODE,ARG_OF_PERICENTER,MEAN_ANOMALY,EPHEMERIS_TYPE,CLASSIFICATION_TYPE,NORAD_CAT_ID,ELEMENT_SET_NO,REV_AT_EPOCH,BSTAR,MEAN_MOTION_DOT,MEAN_MOTION_DDOT
ONEWEB-0689,2024-188D,2026-06-05T01:25:48.709056,13.11419632,.00019,87.8909,23.4637,91.6112,268.5233,0,U,61597,999,8286,-.32944E-3,-.104E-5,0
ONEWEB-0690,2024-188E,2026-06-04T03:42:04.053312,13.11419090,.00016105,87.8912,23.6550,58.7372,301.3914,0,U,61598,999,8292,.11634763E-2,.425E-5,0
ONEWEB-0691,2024-188F,2026-06-05T01:33:08.835840,13.11417832,.0002179,87.8919,23.3821,83.4429,276.6947,0,U,61599,999,8289,.34665E-3,.136E-5,0
ONEWEB-0692,2024-188G,2026-06-05T00:12:35.308800,13.11415061,.0002339,87.8888,23.5079,71.6895,288.4487,0,U,61600,999,8287,.13535E-2,.492E-5,0
ONEWEB-0693,2024-188H,2026-06-04T23:16:14.099232,13.17651642,.00017,87.9133,8.3277,61.1838,298.9464,0,U,61601,999,8427,.71346E-4,.41E-6,0
ONEWEB-0695,2024-188J,2026-06-05T01:28:14.937600,13.11418857,.0001764,87.8901,23.4906,102.5229,257.6097,0,U,61602,999,8287,-.10649E-3,-.25E-6,0
ONEWEB-0697,2024-188K,2026-06-04T04:16:14.261376,13.11415815,.00012797,87.8894,23.6567,108.3101,251.8167,0,U,61603,999,8274,.65643828E-3,.245E-5,0
ONEWEB-0698,2024-188L,2026-06-04T23:53:02.224896,13.11418825,.0000642,87.8898,23.5079,66.2255,293.8941,0,U,61604,999,8287,.76857E-3,.285E-5,0
ONEWEB-0699,2024-188M,2026-06-04T16:37:44.204736,13.10370134,.0001256,87.8840,38.7538,96.9694,263.1577,0,U,61605,999,8167,-.14137E-2,-.481E-5,0
ONEWEB-0700,2024-188N,2026-06-04T16:40:07.366080,13.10371482,.0001619,87.8855,38.6614,104.8665,255.2641,0,U,61606,999,8166,-.11145E-2,-.376E-5,0
ONEWEB-0701,2024-188P,2026-06-04T04:14:20.537376,13.10376913,.00010987,87.8855,38.8552,98.2372,261.8880,0,U,61607,999,8160,-.11986355E-2,-.406E-5,0
ONEWEB-0702,2024-188Q,2026-06-05T00:58:57.437184,13.11417983,.0001332,87.8913,23.4017,110.4521,249.6750,0,U,61608,999,8289,-.13136E-2,-.453E-5,0
ONEWEB-0704,2024-188R,2026-06-04T16:47:17.773728,13.10372712,.0001652,87.8853,38.7402,114.6545,245.4755,0,U,61609,999,8165,-.19807E-2,-.679E-5,0
ONEWEB-0705,2024-188S,2026-06-04T04:04:46.212384,13.10373663,.00024066,87.8854,38.8515,106.0438,254.0955,0,U,61610,999,7375,-.18388254E-2,-.629E-5,0
ONEWEB-0706,2024-188T,2026-06-04T16:32:57.545088,13.10370784,.0001754,87.8839,38.7545,99.2712,260.8613,0,U,61611,999,8174,-.67417E-3,-.223E-5,0
ONEWEB-0707,2024-188U,2026-06-04T16:42:30.775392,13.10370528,.0001769,87.8850,38.7480,111.4446,248.6870,0,U,61612,999,8168,-.1615E-2,-.551E-5,0
ONEWEB-0708,2024-188V,2026-06-04T17:08:48.602688,13.10376414,.0002299,87.8852,38.7616,90.7035,269.4356,0,U,61613,999,8166,-.12919E-2,-.438E-5,0
